[{"OBJECT_NAME":"STARLINK-36145","OBJECT_ID":"2025-288AA","EPOCH":"2026-03-09T06:48:23.435712","MEAN_MOTION":15.27593375,"ECCENTRICITY":0.00016823,"INCLINATION":43.0036,"RA_OF_ASC_NODE":25.8836,"ARG_OF_PERICENTER":255.2331,"MEAN_ANOMALY":104.8334,"EPHEMERIS_TYPE":0,"CLASSIFICATION_TYPE":"U","NORAD_CAT_ID":66983,"ELEMENT_SET_NO":999,"REV_AT_EPOCH":1522,"BSTAR":0.0010532077,"MEAN_MOTION_DOT":0.00028845,"MEAN_MOTION_DDOT":0},{"OBJECT_NAME":"DMSP 5D-2 F13 DEB","OBJECT_ID":"1995-015HL","EPOCH":"2026-02-09T02:06:19.247328","MEAN_MOTION":15.12822218,"ECCENTRICITY":0.00117732,"INCLINATION":98.8603,"RA_OF_ASC_NODE":96.8879,"ARG_OF_PERICENTER":223.037,"MEAN_ANOMALY":136.9936,"EPHEMERIS_TYPE":0,"CLASSIFICATION_TYPE":"U","NORAD_CAT_ID":42294,"ELEMENT_SET_NO":999,"REV_AT_EPOCH":55633,"BSTAR":0.010466292,"MEAN_MOTION_DOT":0.00188804,"MEAN_MOTION_DDOT":0}]
